KUIPER-00136            
1 65962U 25228R   25359.33334491 -.01608485  00000+0 -87365-1 0  9994
2 65962  51.8862 320.5607 0007010  77.2561 187.5807 15.17431131  1979
KUIPER-00137            
1 65963U 25228S   25359.33334491 -.01125790  00000+0 -41886-1 0  9996
2 65963  51.8836 320.0113 0006233  71.4855 150.9836 15.29947467  2497
KUIPER-00138            
1 65964U 25228T   25358.63246559  .00042339  00000+0  11812-2 0  9997
2 65964  51.8810 323.2598 0008307  70.1091 290.0790 15.36298779 12246
KUIPER-00140            
1 65965U 25228U   25359.33334491  .00015123  00000+0  58714-3 0  9993
2 65965  51.8821 320.2797 0008010  63.4280   3.6905 15.26255007  5708
KUIPER-00141            
1 65966U 25228V   25359.19421328  .00036122  00000+0  98683-3 0  9995
2 65966  51.8796 320.2790 0006145  69.3415 290.8230 15.37039008 12336
KUIPER-00146            
1 65967U 25228W   25359.33334491 -.00548473  00000+0 -17704-1 0  9998
2 65967  51.8811 319.8188 0008204  67.7308 241.0160 15.33828208  3964
KUIPER-00149            
1 65968U 25228X   25359.19613651  .00036099  00000+0  10077-2 0  9992
2 65968  51.8796 320.2948 0005714  60.9603 299.1955 15.36371152 12334
KUIPER-00154            
1 65969U 25228Y   25359.13580454  .00039877  00000+0  11130-2 0  9999
2 65969  51.8801 320.6379 0006593  52.9373 307.2215 15.36323615 12325
