<?xml version="1.0" encoding="UTF-8"?>
<ndm xmlns:xsi="http://www.w3.org/2001/XMLSchema-instance" xsi:noNamespaceSchemaLocation="https://sanaregistry.org/r/ndmxml_unqualified/ndmxml-2.0.0-master-2.0.xsd">
<omm id="CCSDS_OMM_VERS" version="2.0">
<header><CREATION_DATE/><ORIGINATOR/></header><body><segment><metadata><OBJECT_NAME>KUIPER-00136</OBJECT_NAME><OBJECT_ID>2025-228R</OBJECT_ID><CENTER_NAME>EARTH</CENTER_NAME><REF_FRAME>TEME</REF_FRAME><TIME_SYSTEM>UTC</TIME_SYSTEM><MEAN_ELEMENT_THEORY>SGP4</MEAN_ELEMENT_THEORY></metadata><data><meanElements><EPOCH>2025-12-25T08:00:01.000224</EPOCH><MEAN_MOTION>15.17431131</MEAN_MOTION><ECCENTRICITY>.00070102</ECCENTRICITY><INCLINATION>51.8862</INCLINATION><RA_OF_ASC_NODE>320.5607</RA_OF_ASC_NODE><ARG_OF_PERICENTER>77.2561</ARG_OF_PERICENTER><MEAN_ANOMALY>187.5807</MEAN_ANOMALY></meanElements><tleParameters><EPHEMERIS_TYPE>0</EPHEMERIS_TYPE><CLASSIFICATION_TYPE>U</CLASSIFICATION_TYPE><NORAD_CAT_ID>65962</NORAD_CAT_ID><ELEMENT_SET_NO>999</ELEMENT_SET_NO><REV_AT_EPOCH>197</REV_AT_EPOCH><BSTAR>-.87365357E-1</BSTAR><MEAN_MOTION_DOT>-.1608485E-1</MEAN_MOTION_DOT><MEAN_MOTION_DDOT>0</MEAN_MOTION_DDOT></tleParameters></data></segment></body></omm>
<omm id="CCSDS_OMM_VERS" version="2.0">
<header><CREATION_DATE/><ORIGINATOR/></header><body><segment><metadata><OBJECT_NAME>KUIPER-00137</OBJECT_NAME><OBJECT_ID>2025-228S</OBJECT_ID><CENTER_NAME>EARTH</CENTER_NAME><REF_FRAME>TEME</REF_FRAME><TIME_SYSTEM>UTC</TIME_SYSTEM><MEAN_ELEMENT_THEORY>SGP4</MEAN_ELEMENT_THEORY></metadata><data><meanElements><EPOCH>2025-12-25T08:00:01.000224</EPOCH><MEAN_MOTION>15.29947467</MEAN_MOTION><ECCENTRICITY>.00062334</ECCENTRICITY><INCLINATION>51.8836</INCLINATION><RA_OF_ASC_NODE>320.0113</RA_OF_ASC_NODE><ARG_OF_PERICENTER>71.4855</ARG_OF_PERICENTER><MEAN_ANOMALY>150.9836</MEAN_ANOMALY></meanElements><tleParameters><EPHEMERIS_TYPE>0</EPHEMERIS_TYPE><CLASSIFICATION_TYPE>U</CLASSIFICATION_TYPE><NORAD_CAT_ID>65963</NORAD_CAT_ID><ELEMENT_SET_NO>999</ELEMENT_SET_NO><REV_AT_EPOCH>249</REV_AT_EPOCH><BSTAR>-.41886035E-1</BSTAR><MEAN_MOTION_DOT>-.112579E-1</MEAN_MOTION_DOT><MEAN_MOTION_DDOT>0</MEAN_MOTION_DDOT></tleParameters></data></segment></body></omm>
<omm id="CCSDS_OMM_VERS" version="2.0">
<header><CREATION_DATE/><ORIGINATOR/></header><body><segment><metadata><OBJECT_NAME>KUIPER-00138</OBJECT_NAME><OBJECT_ID>2025-228T</OBJECT_ID><CENTER_NAME>EARTH</CENTER_NAME><REF_FRAME>TEME</REF_FRAME><TIME_SYSTEM>UTC</TIME_SYSTEM><MEAN_ELEMENT_THEORY>SGP4</MEAN_ELEMENT_THEORY></metadata><data><meanElements><EPOCH>2025-12-24T15:10:45.026976</EPOCH><MEAN_MOTION>15.36298779</MEAN_MOTION><ECCENTRICITY>.00083072</ECCENTRICITY><INCLINATION>51.8810</INCLINATION><RA_OF_ASC_NODE>323.2598</RA_OF_ASC_NODE><ARG_OF_PERICENTER>70.1091</ARG_OF_PERICENTER><MEAN_ANOMALY>290.0790</MEAN_ANOMALY></meanElements><tleParameters><EPHEMERIS_TYPE>0</EPHEMERIS_TYPE><CLASSIFICATION_TYPE>U</CLASSIFICATION_TYPE><NORAD_CAT_ID>65964</NORAD_CAT_ID><ELEMENT_SET_NO>999</ELEMENT_SET_NO><REV_AT_EPOCH>1224</REV_AT_EPOCH><BSTAR>.11811627E-2</BSTAR><MEAN_MOTION_DOT>.42339E-3</MEAN_MOTION_DOT><MEAN_MOTION_DDOT>0</MEAN_MOTION_DDOT></tleParameters></data></segment></body></omm>
<omm id="CCSDS_OMM_VERS" version="2.0">
<header><CREATION_DATE/><ORIGINATOR/></header><body><segment><metadata><OBJECT_NAME>KUIPER-00140</OBJECT_NAME><OBJECT_ID>2025-228U</OBJECT_ID><CENTER_NAME>EARTH</CENTER_NAME><REF_FRAME>TEME</REF_FRAME><TIME_SYSTEM>UTC</TIME_SYSTEM><MEAN_ELEMENT_THEORY>SGP4</MEAN_ELEMENT_THEORY></metadata><data><meanElements><EPOCH>2025-12-25T08:00:01.000224</EPOCH><MEAN_MOTION>15.26255007</MEAN_MOTION><ECCENTRICITY>.00080107</ECCENTRICITY><INCLINATION>51.8821</INCLINATION><RA_OF_ASC_NODE>320.2797</RA_OF_ASC_NODE><ARG_OF_PERICENTER>63.4280</ARG_OF_PERICENTER><MEAN_ANOMALY>3.6905</MEAN_ANOMALY></meanElements><tleParameters><EPHEMERIS_TYPE>0</EPHEMERIS_TYPE><CLASSIFICATION_TYPE>U</CLASSIFICATION_TYPE><NORAD_CAT_ID>65965</NORAD_CAT_ID><ELEMENT_SET_NO>999</ELEMENT_SET_NO><REV_AT_EPOCH>570</REV_AT_EPOCH><BSTAR>.58713885E-3</BSTAR><MEAN_MOTION_DOT>.15123E-3</MEAN_MOTION_DOT><MEAN_MOTION_DDOT>0</MEAN_MOTION_DDOT></tleParameters></data></segment></body></omm>
<omm id="CCSDS_OMM_VERS" version="2.0">
<header><CREATION_DATE/><ORIGINATOR/></header><body><segment><metadata><OBJECT_NAME>KUIPER-00141</OBJECT_NAME><OBJECT_ID>2025-228V</OBJECT_ID><CENTER_NAME>EARTH</CENTER_NAME><REF_FRAME>TEME</REF_FRAME><TIME_SYSTEM>UTC</TIME_SYSTEM><MEAN_ELEMENT_THEORY>SGP4</MEAN_ELEMENT_THEORY></metadata><data><meanElements><EPOCH>2025-12-25T04:39:40.027392</EPOCH><MEAN_MOTION>15.37039008</MEAN_MOTION><ECCENTRICITY>.00061454</ECCENTRICITY><INCLINATION>51.8796</INCLINATION><RA_OF_ASC_NODE>320.2790</RA_OF_ASC_NODE><ARG_OF_PERICENTER>69.3415</ARG_OF_PERICENTER><MEAN_ANOMALY>290.8230</MEAN_ANOMALY></meanElements><tleParameters><EPHEMERIS_TYPE>0</EPHEMERIS_TYPE><CLASSIFICATION_TYPE>U</CLASSIFICATION_TYPE><NORAD_CAT_ID>65966</NORAD_CAT_ID><ELEMENT_SET_NO>999</ELEMENT_SET_NO><REV_AT_EPOCH>1233</REV_AT_EPOCH><BSTAR>.98682503E-3</BSTAR><MEAN_MOTION_DOT>.36122E-3</MEAN_MOTION_DOT><MEAN_MOTION_DDOT>0</MEAN_MOTION_DDOT></tleParameters></data></segment></body></omm>
<omm id="CCSDS_OMM_VERS" version="2.0">
<header><CREATION_DATE/><ORIGINATOR/></header><body><segment><metadata><OBJECT_NAME>KUIPER-00146</OBJECT_NAME><OBJECT_ID>2025-228W</OBJECT_ID><CENTER_NAME>EARTH</CENTER_NAME><REF_FRAME>TEME</REF_FRAME><TIME_SYSTEM>UTC</TIME_SYSTEM><MEAN_ELEMENT_THEORY>SGP4</MEAN_ELEMENT_THEORY></metadata><data><meanElements><EPOCH>2025-12-25T08:00:01.000224</EPOCH><MEAN_MOTION>15.33828208</MEAN_MOTION><ECCENTRICITY>.00082043</ECCENTRICITY><INCLINATION>51.8811</INCLINATION><RA_OF_ASC_NODE>319.8188</RA_OF_ASC_NODE><ARG_OF_PERICENTER>67.7308</ARG_OF_PERICENTER><MEAN_ANOMALY>241.0160</MEAN_ANOMALY></meanElements><tleParameters><EPHEMERIS_TYPE>0</EPHEMERIS_TYPE><CLASSIFICATION_TYPE>U</CLASSIFICATION_TYPE><NORAD_CAT_ID>65967</NORAD_CAT_ID><ELEMENT_SET_NO>999</ELEMENT_SET_NO><REV_AT_EPOCH>396</REV_AT_EPOCH><BSTAR>-.17704462E-1</BSTAR><MEAN_MOTION_DOT>-.548473E-2</MEAN_MOTION_DOT><MEAN_MOTION_DDOT>0</MEAN_MOTION_DDOT></tleParameters></data></segment></body></omm>
<omm id="CCSDS_OMM_VERS" version="2.0">
<header><CREATION_DATE/><ORIGINATOR/></header><body><segment><metadata><OBJECT_NAME>KUIPER-00149</OBJECT_NAME><OBJECT_ID>2025-228X</OBJECT_ID><CENTER_NAME>EARTH</CENTER_NAME><REF_FRAME>TEME</REF_FRAME><TIME_SYSTEM>UTC</TIME_SYSTEM><MEAN_ELEMENT_THEORY>SGP4</MEAN_ELEMENT_THEORY></metadata><data><meanElements><EPOCH>2025-12-25T04:42:26.194464</EPOCH><MEAN_MOTION>15.36371152</MEAN_MOTION><ECCENTRICITY>.00057142</ECCENTRICITY><INCLINATION>51.8796</INCLINATION><RA_OF_ASC_NODE>320.2948</RA_OF_ASC_NODE><ARG_OF_PERICENTER>60.9603</ARG_OF_PERICENTER><MEAN_ANOMALY>299.1955</MEAN_ANOMALY></meanElements><tleParameters><EPHEMERIS_TYPE>0</EPHEMERIS_TYPE><CLASSIFICATION_TYPE>U</CLASSIFICATION_TYPE><NORAD_CAT_ID>65968</NORAD_CAT_ID><ELEMENT_SET_NO>999</ELEMENT_SET_NO><REV_AT_EPOCH>1233</REV_AT_EPOCH><BSTAR>.10076897E-2</BSTAR><MEAN_MOTION_DOT>.36099E-3</MEAN_MOTION_DOT><MEAN_MOTION_DDOT>0</MEAN_MOTION_DDOT></tleParameters></data></segment></body></omm>
<omm id="CCSDS_OMM_VERS" version="2.0">
<header><CREATION_DATE/><ORIGINATOR/></header><body><segment><metadata><OBJECT_NAME>KUIPER-00154</OBJECT_NAME><OBJECT_ID>2025-228Y</OBJECT_ID><CENTER_NAME>EARTH</CENTER_NAME><REF_FRAME>TEME</REF_FRAME><TIME_SYSTEM>UTC</TIME_SYSTEM><MEAN_ELEMENT_THEORY>SGP4</MEAN_ELEMENT_THEORY></metadata><data><meanElements><EPOCH>2025-12-25T03:15:33.512256</EPOCH><MEAN_MOTION>15.36323615</MEAN_MOTION><ECCENTRICITY>.00065934</ECCENTRICITY><INCLINATION>51.8801</INCLINATION><RA_OF_ASC_NODE>320.6379</RA_OF_ASC_NODE><ARG_OF_PERICENTER>52.9373</ARG_OF_PERICENTER><MEAN_ANOMALY>307.2215</MEAN_ANOMALY></meanElements><tleParameters><EPHEMERIS_TYPE>0</EPHEMERIS_TYPE><CLASSIFICATION_TYPE>U</CLASSIFICATION_TYPE><NORAD_CAT_ID>65969</NORAD_CAT_ID><ELEMENT_SET_NO>999</ELEMENT_SET_NO><REV_AT_EPOCH>1232</REV_AT_EPOCH><BSTAR>.11129964E-2</BSTAR><MEAN_MOTION_DOT>.39877E-3</MEAN_MOTION_DOT><MEAN_MOTION_DDOT>0</MEAN_MOTION_DDOT></tleParameters></data></segment></body></omm>

</ndm>
